{
  "type": "FeatureCollection",
  "features": [
    {
      "type": "Feature",
      "properties": {
        "norad_id": 34492,
        "name": "IRIDIUM 33 DEB",
        "group": "iridium-33-debris",
        "lat": 60.30183778214769,
        "lon": 146.33035560034037,
        "alt_km": 825.6212391792924,
        "timestamp": "2025-12-17T21:39:46.075030+00:00",
        "meta_object_name": "IRIDIUM 33 DEB",
        "meta_object_id": "1997-051GH",
        "meta_epoch": "2025-12-17T10:01:30.958752",
        "meta_mean_motion": 14.25820052,
        "meta_eccentricity": 0.01887417,
        "meta_inclination": 86.4709,
        "meta_ra_of_asc_node": 332.7379,
        "meta_arg_of_pericenter": 222.99,
        "meta_mean_anomaly": 291.1876,
        "meta_ephemeris_type": 0,
        "meta_classification_type": "U",
        "meta_norad_cat_id": 34492,
        "meta_element_set_no": 999,
        "meta_rev_at_epoch": 85125,
        "meta_bstar": 0.0026623829,
        "meta_mean_motion_dot": 7.653e-05,
        "meta_mean_motion_ddot": 0,
        "tle_line1": "1 34492U 97051GH  25351.41771943  .00007653  00000+0  26624-2 0  9998",
        "tle_line2": "2 34492  86.4709 332.7379 0188741 222.9900 291.1876 14.25820052851259"
      },
      "geometry": {
        "type": "Point",
        "coordinates": [
          146.33035560034037,
          60.30183778214769
        ]
      }
    },
    {
      "type": "Feature",
      "properties": {
        "norad_id": 34497,
        "name": "IRIDIUM 33 DEB",
        "group": "iridium-33-debris",
        "lat": 31.74414234649522,
        "lon": 52.5043465876425,
        "alt_km": 778.0867788668211,
        "timestamp": "2025-12-17T21:39:46.075039+00:00",
        "meta_object_name": "IRIDIUM 33 DEB",
        "meta_object_id": "1997-051GN",
        "meta_epoch": "2025-12-17T03:08:55.431168",
        "meta_mean_motion": 14.27466944,
        "meta_eccentricity": 0.00783935,
        "meta_inclination": 86.2776,
        "meta_ra_of_asc_node": 50.5255,
        "meta_arg_of_pericenter": 325.2026,
        "meta_mean_anomaly": 64.1256,
        "meta_ephemeris_type": 0,
        "meta_classification_type": "U",
        "meta_norad_cat_id": 34497,
        "meta_element_set_no": 999,
        "meta_rev_at_epoch": 86946,
        "meta_bstar": 0.00048733153,
        "meta_mean_motion_dot": 1.254e-05,
        "meta_mean_motion_ddot": 0,
        "tle_line1": "1 34497U 97051GN  25351.13119712  .00001254  00000+0  48733-3 0  9999",
        "tle_line2": "2 34497  86.2776  50.5255 0078393 325.2026  64.1256 14.27466944869461"
      },
      "geometry": {
        "type": "Point",
        "coordinates": [
          52.5043465876425,
          31.74414234649522
        ]
      }
    },
    {
      "type": "Feature",
      "properties": {
        "norad_id": 34508,
        "name": "IRIDIUM 33 DEB",
        "group": "iridium-33-debris",
        "lat": 32.23076771176859,
        "lon": 102.74804548568937,
        "alt_km": 788.0026094496234,
        "timestamp": "2025-12-17T21:39:46.075048+00:00",
        "meta_object_name": "IRIDIUM 33 DEB",
        "meta_object_id": "1997-051GZ",
        "meta_epoch": "2025-12-17T08:09:19.662624",
        "meta_mean_motion": 14.38463822,
        "meta_eccentricity": 0.00664313,
        "meta_inclination": 86.3706,
        "meta_ra_of_asc_node": 100.6932,
        "meta_arg_of_pericenter": 158.1405,
        "meta_mean_anomaly": 202.2652,
        "meta_ephemeris_type": 0,
        "meta_classification_type": "U",
        "meta_norad_cat_id": 34508,
        "meta_element_set_no": 999,
        "meta_rev_at_epoch": 87375,
        "meta_bstar": 0.00097769718,
        "meta_mean_motion_dot": 3.081e-05,
        "meta_mean_motion_ddot": 0,
        "tle_line1": "1 34508U 97051GZ  25351.33981091  .00003081  00000+0  97770-3 0  9996",
        "tle_line2": "2 34508  86.3706 100.6932 0066431 158.1405 202.2652 14.38463822873757"
      },
      "geometry": {
        "type": "Point",
        "coordinates": [
          102.74804548568937,
          32.23076771176859
        ]
      }
    },
    {
      "type": "Feature",
      "properties": {
        "norad_id": 34521,
        "name": "IRIDIUM 33 DEB",
        "group": "iridium-33-debris",
        "lat": -46.27257299540794,
        "lon": 24.48037513153538,
        "alt_km": 689.8932293156113,
        "timestamp": "2025-12-17T21:39:46.075057+00:00",
        "meta_object_name": "IRIDIUM 33 DEB",
        "meta_object_id": "1997-051HN",
        "meta_epoch": "2025-12-17T13:40:08.886720",
        "meta_mean_motion": 14.63407494,
        "meta_eccentricity": 0.00021431,
        "meta_inclination": 86.3797,
        "meta_ra_of_asc_node": 28.4221,
        "meta_arg_of_pericenter": 191.417,
        "meta_mean_anomaly": 168.6994,
        "meta_ephemeris_type": 0,
        "meta_classification_type": "U",
        "meta_norad_cat_id": 34521,
        "meta_element_set_no": 999,
        "meta_rev_at_epoch": 88543,
        "meta_bstar": 0.00063465503,
        "meta_mean_motion_dot": 3.302e-05,
        "meta_mean_motion_ddot": 0,
        "tle_line1": "1 34521U 97051HN  25351.56954730  .00003302  00000+0  63466-3 0  9997",
        "tle_line2": "2 34521  86.3797  28.4221 0002143 191.4170 168.6994 14.63407494885432"
      },
      "geometry": {
        "type": "Point",
        "coordinates": [
          24.48037513153538,
          -46.27257299540794
        ]
      }
    },
    {
      "type": "Feature",
      "properties": {
        "norad_id": 34525,
        "name": "IRIDIUM 33 DEB",
        "group": "iridium-33-debris",
        "lat": 67.00095636896766,
        "lon": -143.95523842039418,
        "alt_km": 738.37874603211,
        "timestamp": "2025-12-17T21:39:46.075066+00:00",
        "meta_object_name": "IRIDIUM 33 DEB",
        "meta_object_id": "1997-051HS",
        "meta_epoch": "2025-12-17T15:03:01.274112",
        "meta_mean_motion": 14.4291718,
        "meta_eccentricity": 0.00065505,
        "meta_inclination": 86.3725,
        "meta_ra_of_asc_node": 44.7578,
        "meta_arg_of_pericenter": 83.9317,
        "meta_mean_anomaly": 38.4452,
        "meta_ephemeris_type": 0,
        "meta_classification_type": "U",
        "meta_norad_cat_id": 34525,
        "meta_element_set_no": 999,
        "meta_rev_at_epoch": 88158,
        "meta_bstar": 0.00028829346,
        "meta_mean_motion_dot": 9.83e-06,
        "meta_mean_motion_ddot": 0,
        "tle_line1": "1 34525U 97051HS  25351.62709808  .00000983  00000+0  28829-3 0  9998",
        "tle_line2": "2 34525  86.3725  44.7578 0006550  83.9317  38.4452 14.42917180881587"
      },
      "geometry": {
        "type": "Point",
        "coordinates": [
          -143.95523842039418,
          67.00095636896766
        ]
      }
    },
    {
      "type": "Feature",
      "properties": {
        "norad_id": 34529,
        "name": "IRIDIUM 33 DEB",
        "group": "iridium-33-debris",
        "lat": -35.14417853334096,
        "lon": 30.6451817820364,
        "alt_km": 766.4686024382545,
        "timestamp": "2025-12-17T21:39:46.075075+00:00",
        "meta_object_name": "IRIDIUM 33 DEB",
        "meta_object_id": "1997-051HW",
        "meta_epoch": "2025-12-17T03:29:20.563296",
        "meta_mean_motion": 14.40619267,
        "meta_eccentricity": 0.00053513,
        "meta_inclination": 86.3637,
        "meta_ra_of_asc_node": 33.5337,
        "meta_arg_of_pericenter": 163.3615,
        "meta_mean_anomaly": 196.7761,
        "meta_ephemeris_type": 0,
        "meta_classification_type": "U",
        "meta_norad_cat_id": 34529,
        "meta_element_set_no": 999,
        "meta_rev_at_epoch": 88205,
        "meta_bstar": 9.9400993e-05,
        "meta_mean_motion_dot": 3.37e-06,
        "meta_mean_motion_ddot": 0,
        "tle_line1": "1 34529U 97051HW  25351.14537689  .00000337  00000+0  99401-4 0  9993",
        "tle_line2": "2 34529  86.3637  33.5337 0005351 163.3615 196.7761 14.40619267882051"
      },
      "geometry": {
        "type": "Point",
        "coordinates": [
          30.6451817820364,
          -35.14417853334096
        ]
      }
    },
    {
      "type": "Feature",
      "properties": {
        "norad_id": 34538,
        "name": "IRIDIUM 33 DEB",
        "group": "iridium-33-debris",
        "lat": -19.67629658990206,
        "lon": -175.37087349088222,
        "alt_km": 763.0197301728595,
        "timestamp": "2025-12-17T21:39:46.075084+00:00",
        "meta_object_name": "IRIDIUM 33 DEB",
        "meta_object_id": "1997-051JF",
        "meta_epoch": "2025-12-17T06:19:36.292800",
        "meta_mean_motion": 14.42675143,
        "meta_eccentricity": 0.00323823,
        "meta_inclination": 86.2769,
        "meta_ra_of_asc_node": 3.5747,
        "meta_arg_of_pericenter": 312.4941,
        "meta_mean_anomaly": 170.8226,
        "meta_ephemeris_type": 0,
        "meta_classification_type": "U",
        "meta_norad_cat_id": 34538,
        "meta_element_set_no": 999,
        "meta_rev_at_epoch": 87821,
        "meta_bstar": 0.00073550599,
        "meta_mean_motion_dot": 2.479e-05,
        "meta_mean_motion_ddot": 0,
        "tle_line1": "1 34538U 97051JF  25351.26361450  .00002479  00000+0  73551-3 0  9993",
        "tle_line2": "2 34538  86.2769   3.5747 0032382 312.4941 170.8226 14.42675143878210"
      },
      "geometry": {
        "type": "Point",
        "coordinates": [
          -175.37087349088222,
          -19.67629658990206
        ]
      }
    }
  ]
}